NORAD_CAT_ID,OBJECT_NAME,OBJECT_TYPE,EPOCH,MEAN_MOTION,ECCENTRICITY,INCLINATION,RA_OF_ASC_NODE,ARG_OF_PERICENTER,MEAN_ANOMALY,BSTAR,MEAN_MOTION_DOT,MEAN_MOTION_DDOT,TLE_LINE0,TLE_LINE1,TLE_LINE2,SEMIMAJOR_AXIS,PERIOD,APOGEE,PERIGEE,DECAYED
55791.0,STARLINK-5807,PAYLOAD,2024-03-04 22:06:48,14.98335422,0.0002906,69.9977,257.1207,268.2771,91.8055,7.2757e-05,7.75e-06,0.0,0 STARLINK-5807,1 55791U 23028BC  24064.92138920  .00000775  00000-0  72757-4 0  9993,2 55791  69.9977 257.1207 0002906 268.2771  91.8055 14.98335422 56965,6950.176,96.107,574.061,570.021,0.0
55791.0,STARLINK-5807,PAYLOAD,2024-03-05 14:08:09,14.98328018,0.0002796,69.9988,255.4363,267.5574,92.5265,-4.5218e-06,-1.47e-06,0.0,0 STARLINK-5807,1 55791U 23028BC  24065.58899477 -.00000147  00000-0 -45218-5 0  9995,2 55791  69.9988 255.4363 0002796 267.5574  92.5265 14.98328018 57067,6950.199,96.107,574.007,570.121,0.0
55791.0,STARLINK-5807,PAYLOAD,2024-03-05 18:56:33,14.98325291,0.0002557,69.9983,254.9313,261.7794,98.3075,7.8388e-07,-8.4e-07,0.0,0 STARLINK-5807,1 55791U 23028BC  24065.78927650 -.00000084  00000-0  78388-6 0  9996,2 55791  69.9983 254.9313 0002557 261.7794  98.3075 14.98325291 57081,6950.207,96.107,573.85,570.295,0.0
55791.0,STARLINK-5807,PAYLOAD,2024-03-06 06:09:29,14.98336871,0.0003003,69.9982,253.7537,269.5564,90.5251,-0.00015461,-1.938e-05,0.0,0 STARLINK-5807,1 55791U 23028BC  24066.25659329 -.00001938  00000-0 -15461-3 0  9994,2 55791  69.9982 253.7537 0003003 269.5564  90.5251 14.98336871 57157,6950.172,96.107,574.124,569.95,0.0
55791.0,STARLINK-5807,PAYLOAD,2024-03-06 14:10:09,14.98333571,0.0002997,69.9982,252.912,269.5981,90.4835,-4.878e-05,-6.75e-06,0.0,0 STARLINK-5807,1 55791U 23028BC  24066.59039252 -.00000675  00000-0 -48780-4 0  9996,2 55791  69.9982 252.9120 0002997 269.5981  90.4835 14.98333571 57218,6950.182,96.107,574.13,569.964,0.0
55791.0,STARLINK-5807,PAYLOAD,2024-03-07 14:12:11,14.98325799,0.0003049,69.9982,250.3874,270.0367,90.0442,2.7632e-05,2.37e-06,0.0,0 STARLINK-5807,1 55791U 23028BC  24067.59179441  .00000237  00000-0  27632-4 0  9997,2 55791  69.9982 250.3874 0003049 270.0367  90.0442 14.98325799 57369,6950.206,96.107,574.19,569.952,0.0
55791.0,STARLINK-5807,PAYLOAD,2024-03-08 14:14:11,14.9833373,0.0002968,69.9986,247.8625,271.1689,88.913,-3.003e-06,-1.29e-06,0.0,0 STARLINK-5807,1 55791U 23028BC  24068.59319101 -.00000129  00000-0 -30030-5 0  9996,2 55791  69.9986 247.8625 0002968 271.1689  88.9130 14.98333730 57517,6950.181,96.107,574.109,569.984,0.0
55791.0,STARLINK-5807,PAYLOAD,2024-03-09 12:40:04,14.9833003,0.0002965,69.9992,245.5066,270.5713,89.5107,-1.414e-06,-1.1e-06,0.0,0 STARLINK-5807,1 55791U 23028BC  24069.52783154 -.00000110  00000-0 -14140-5 0  9997,2 55791  69.9992 245.5066 0002965 270.5713  89.5107 14.98330030 57652,6950.193,96.107,574.119,569.997,0.0
55791.0,STARLINK-5807,PAYLOAD,2024-03-09 17:28:28,14.98328264,0.0003075,69.9995,245.0014,269.8383,90.2423,2.6407e-05,2.22e-06,0.0,0 STARLINK-5807,1 55791U 23028BC  24069.72811144  .00000222  00000-0  26407-4 0  9990,2 55791  69.9995 245.0014 0003075 269.8383  90.2423 14.98328264 57678,6950.198,96.107,574.2,569.926,0.0
55791.0,STARLINK-5807,PAYLOAD,2024-03-09 22:16:52,14.98330811,0.0003,69.9992,244.4964,271.401,88.6805,2.9018e-05,2.53e-06,0.0,0 STARLINK-5807,1 55791U 23028BC  24069.92838979  .00000253  00000-0  29018-4 0  9992,2 55791  69.9992 244.4964 0003000 271.4010  88.6805 14.98330811 57717,6950.19,96.107,574.14,569.97,0.0
55791.0,STARLINK-5807,PAYLOAD,2024-03-10 12:42:05,14.98325768,0.0002877,69.9987,242.9808,262.829,97.2542,1.4709e-05,8.2e-07,0.0,0 STARLINK-5807,1 55791U 23028BC  24070.52923284  .00000082  00000-0  14709-4 0  9995,2 55791  69.9987 242.9808 0002877 262.8290  97.2542 14.98325768 57805,6950.206,96.107,574.071,570.071,0.0
55791.0,STARLINK-5807,PAYLOAD,2024-03-10 20:42:46,14.98324784,0.0003048,70.0001,242.1396,267.228,92.853,-7.3535e-06,-1.81e-06,0.0,0 STARLINK-5807,1 55791U 23028BC  24070.86303454 -.00000181  00000-0 -73535-5 0  9998,2 55791  70.0001 242.1396 0003048 267.2280  92.8530 14.98324784 57847,6950.209,96.107,574.192,569.956,0.0
55791.0,STARLINK-5807,PAYLOAD,2024-03-10 22:18:54,14.98330487,0.0002817,70.0004,241.9711,263.1782,96.9057,-7.7311e-05,-1.015e-05,0.0,0 STARLINK-5807,1 55791U 23028BC  24070.92979254 -.00001015  00000-0 -77311-4 0  9994,2 55791  70.0004 241.9711 0002817 263.1782  96.9057 14.98330487 57861,6950.191,96.107,574.014,570.099,0.0
55791.0,STARLINK-5807,PAYLOAD,2024-03-11 12:44:06,14.98329385,0.0003026,69.9997,240.4562,268.3943,91.6869,-8.1862e-06,-1.91e-06,0.0,0 STARLINK-5807,1 55791U 23028BC  24071.53063124 -.00000191  00000-0 -81862-5 0  9993,2 55791  69.9997 240.4562 0003026 268.3943  91.6869 14.98329385 57954,6950.195,96.107,574.163,569.957,0.0
55791.0,STARLINK-5807,PAYLOAD,2024-03-11 20:44:46,14.98331391,0.0003078,69.9998,239.6146,268.1764,91.9043,1.7373e-05,1.14e-06,0.0,0 STARLINK-5807,1 55791U 23028BC  24071.86442906  .00000114  00000-0  17373-4 0  9996,2 55791  69.9998 239.6146 0003078 268.1764  91.9043 14.98331391 57990,6950.189,96.107,574.193,569.914,0.0
55791.0,STARLINK-5807,PAYLOAD,2024-03-12 17:34:31,14.98330623,0.0003075,70.0002,237.427,269.0181,91.0626,4.1618e-05,4.04e-06,0.0,0 STARLINK-5807,1 55791U 23028BC  24072.73230860  .00000404  00000-0  41618-4 0  9998,2 55791  70.0002 237.4270 0003075 269.0181  91.0626 14.98330623 58135,6950.191,96.107,574.193,569.919,0.0
55791.0,STARLINK-5807,PAYLOAD,2024-03-13 04:47:28,14.98329917,0.0003004,69.9996,236.248,269.5092,90.5723,-6.252e-07,-1e-06,0.0,0 STARLINK-5807,1 55791U 23028BC  24073.19963008 -.00000100  00000-0 -62520-6 0  9998,2 55791  69.9996 236.2480 0003004 269.5092  90.5723 14.98329917 58194,6950.193,96.107,574.146,569.97,0.0
55791.0,STARLINK-5807,PAYLOAD,2024-03-13 11:12:00,14.98331355,0.000303,69.9986,235.5747,269.4418,90.6394,-1.8899e-06,-1.16e-06,0.0,0 STARLINK-5807,1 55791U 23028BC  24073.46666890 -.00000116  00000-0 -18899-5 0  9993,2 55791  69.9986 235.5747 0003030 269.4418  90.6394 14.98331355 58241,6950.189,96.107,574.16,569.948,0.0
55791.0,STARLINK-5807,PAYLOAD,2024-03-13 17:36:32,14.98332316,0.0003089,70.0014,234.9015,270.6191,89.4614,-1.1379e-06,-1.07e-06,0.0,0 STARLINK-5807,1 55791U 23028BC  24073.73370795 -.00000107  00000-0 -11379-5 0  9995,2 55791  70.0014 234.9015 0003089 270.6191  89.4614 14.98332316 58286,6950.186,96.107,574.198,569.904,0.0
55791.0,STARLINK-5807,PAYLOAD,2024-03-14 11:14:00,14.98333325,0.0003079,70.0001,233.05,270.1977,89.8829,5.2367e-06,-3.1e-07,0.0,0 STARLINK-5807,1 55791U 23028BC  24074.46806578 -.00000031  00000-0  52367-5 0  9996,2 55791  70.0001 233.0500 0003079 270.1977  89.8829 14.98333325 58381,6950.183,96.107,574.188,569.908,0.0
55791.0,STARLINK-5807,PAYLOAD,2024-03-14 20:50:48,14.9833562,0.0003079,70.0004,232.0402,270.4221,89.6585,2.9305e-05,2.57e-06,0.0,0 STARLINK-5807,1 55791U 23028BC  24074.86862245  .00000257  00000-0  29305-4 0  9997,2 55791  70.0004 232.0402 0003079 270.4221  89.6585 14.98335620 58454,6950.176,96.107,574.18,569.901,0.0
55791.0,STARLINK-5807,PAYLOAD,2024-03-15 11:16:01,14.98331175,0.0002794,70.0017,230.5256,267.9829,92.101,-1.5284e-05,-2.75e-06,0.0,0 STARLINK-5807,1 55791U 23028BC  24075.46946614 -.00000275  00000-0 -15284-4 0  9990,2 55791  70.0017 230.5256 0002794 267.9829  92.1010 14.98331175 58538,6950.189,96.107,573.996,570.112,0.0
55791.0,STARLINK-5807,PAYLOAD,2024-03-15 20:52:50,14.98328332,0.0002732,70.0014,229.5163,267.2443,92.8403,-4.0483e-05,-5.76e-06,0.0,0 STARLINK-5807,1 55791U 23028BC  24075.87002858 -.00000576  00000-0 -40483-4 0  9991,2 55791  70.0014 229.5163 0002732 267.2443  92.8403 14.98328332 58609,6950.198,96.107,573.962,570.164,0.0
55791.0,STARLINK-5807,PAYLOAD,2024-03-16 12:54:10,14.98329851,0.0002844,70.0013,227.8332,261.8801,98.2035,-4.1796e-05,-5.92e-06,0.0,0 STARLINK-5807,1 55791U 23028BC  24076.53762705 -.00000592  00000-0 -41796-4 0  9995,2 55791  70.0013 227.8332 0002844 261.8801  98.2035 14.98329851 58696,6950.193,96.107,574.035,570.082,0.0
55791.0,STARLINK-5807,PAYLOAD,2024-03-16 14:30:19,14.98329975,0.0002824,70.0011,227.665,262.9196,97.1642,-3.4794e-05,-5.08e-06,0.0,0 STARLINK-5807,1 55791U 23028BC  24076.60438686 -.00000508  00000-0 -34794-4 0  9998,2 55791  70.0011 227.6650 0002824 262.9196  97.1642 14.98329975 58714,6950.193,96.107,574.021,570.095,0.0
55791.0,STARLINK-5807,PAYLOAD,2024-03-16 20:54:50,14.98335169,0.0003174,70.0005,226.9895,262.0154,98.0645,-3.8743e-05,-5.55e-06,0.0,0 STARLINK-5807,1 55791U 23028BC  24076.87142262 -.00000555  00000-0 -38743-4 0  9999,2 55791  70.0005 226.9895 0003174 262.0154  98.0645 14.98335169 58753,6950.177,96.107,574.248,569.836,0.0
55791.0,STARLINK-5807,PAYLOAD,2024-03-17 12:56:12,14.98328264,0.0003059,70.0012,225.3064,262.1621,97.919,-4.9351e-05,-6.82e-06,0.0,0 STARLINK-5807,1 55791U 23028BC  24077.53902847 -.00000682  00000-0 -49351-4 0  9994,2 55791  70.0012 225.3064 0003059 262.1621  97.9190 14.98328264 58845,6950.198,96.107,574.189,569.937,0.0
55791.0,STARLINK-5807,PAYLOAD,2024-03-17 14:32:20,14.9832664,0.0002781,70.0007,225.1386,255.4038,104.6813,-2.2574e-06,-1.2e-06,0.0,0 STARLINK-5807,1 55791U 23028BC  24077.60578829 -.00000120  00000-0 -22574-5 0  9997,2 55791  70.0007 225.1386 0002781 255.4038 104.6813 14.98326640 58868,6950.203,96.107,574.001,570.135,0.0
55791.0,STARLINK-5807,PAYLOAD,2024-03-17 19:20:44,14.98324684,0.0002803,70.001,224.6343,260.2709,99.8134,-1.1977e-05,-2.36e-06,0.0,0 STARLINK-5807,1 55791U 23028BC  24077.80607063 -.00000236  00000-0 -11977-4 0  9994,2 55791  70.0010 224.6343 0002803 260.2709  99.8134 14.98324684 58893,6950.209,96.107,574.022,570.126,0.0
55791.0,STARLINK-5807,PAYLOAD,2024-03-18 11:22:04,14.98330285,0.000301,70.0005,222.9518,267.7001,92.3814,4.4422e-06,-4e-07,0.0,0 STARLINK-5807,1 55791U 23028BC  24078.47366764 -.00000040  00000-0  44422-5 0  9992,2 55791  70.0005 222.9518 0003010 267.7001  92.3814 14.98330285 58998,6950.192,96.107,574.149,569.965,0.0
